ONEWEB-0559             
1 56060U 23043Q   26004.17117208  .00000158  00000+0  35006-3 0  9998
2 56060  87.9227 276.6925 0001525  65.1937 294.9356 13.21826945136587
ONEWEB-0566             
1 56061U 23043R   26004.24028386  .00000233  00000+0  53160-3 0  9990
2 56061  87.9226 276.6778 0001451  63.8000 296.3284 13.21827400136579
ONEWEB-0568             
1 56062U 23043S   26004.23748835  .00000042  00000+0  76992-4 0  9995
2 56062  87.9045 261.4144 0001511  84.7393 275.3911 13.16593966137400
ONEWEB-0574             
1 56063U 23043T   26004.23370048  .00000210  00000+0  47636-3 0  9992
2 56063  87.9227 276.6666 0001802  75.4894 284.6440 13.21827952136619
ONEWEB-0575             
1 56064U 23043U   26004.07915974  .00000134  00000+0  31604-3 0  9991
2 56064  87.9041 261.4455 0001838  81.5243 278.6096 13.16593426137371
ONEWEB-0576             
1 56065U 23043V   26004.21272863 -.00074292  00000+0 -19758+0 0  9991
2 56065  87.9021 261.4210 0003936 135.5469 224.5978 13.16026874137388
ONEWEB-0577             
1 56066U 23043W   26004.21848883  .00000149  00000+0  35692-3 0  9990
2 56066  87.9045 261.4186 0002274  79.8413 280.2975 13.16593616137413
ONEWEB-0578             
1 56067U 23043X   26004.29625084 -.00000001  00000+0 -33557-4 0  9993
2 56067  87.9224 276.6655 0001583  83.4556 276.6759 13.21826755136588
ONEWEB-0579             
1 56068U 23043Y   26004.28635289  .00000088  00000+0  18132-3 0  9995
2 56068  87.9227 276.6551 0001668  63.6242 296.5063 13.21824465136599
ONEWEB-0581             
1 56069U 23043Z   26004.22482274  .00000063  00000+0  13068-3 0  9990
2 56069  87.9041 261.4303 0001937  73.5094 286.6250 13.16593605137384
ONEWEB-0609             
1 56070U 23043AA  26004.28021860  .00000008  00000+0 -12396-4 0  9992
2 56070  87.9013 291.9300 0001615  73.3809 286.7499 13.15548020134883
ONEWEB-0613             
1 56071U 23043AB  26004.27546177 -.00000005  00000+0 -47178-4 0  9999
2 56071  87.9008 291.9420 0001570  64.2059 295.9233 13.15548000134883
ONEWEB-0630             
1 56072U 23043AC  26004.27070630  .00000055  00000+0  11149-3 0  9997
2 56072  87.9007 291.9148 0001617  64.3954 295.7343 13.15547617134879
ONEWEB-0632             
1 56073U 23043AD  26004.26595202  .00000056  00000+0  11580-3 0  9994
2 56073  87.9006 291.9328 0001836  71.9190 288.2140 13.15549331134875
ONEWEB-0633             
1 56074U 23043AE  26004.25961803  .00000072  00000+0  15780-3 0  9992
2 56074  87.9008 291.8972 0001426  60.4636 299.6637 13.15548082134852
ONEWEB-0634             
1 56075U 23043AF  26004.24535786  .00000575  00000+0  14920-2 0  9991
2 56075  87.9015 291.9515 0001560  91.7337 268.3972 13.15546660134843
ONEWEB-0635             
1 56076U 23043AG  26004.24060357  .00000338  00000+0  86302-3 0  9990
2 56076  87.9003 291.9056 0001958  72.4741 287.6603 13.15549057134878
