[{"OBJECT_NAME":"ONEWEB-0559","OBJECT_ID":"2023-043Q","EPOCH":"2026-01-04T04:06:29.267712","MEAN_MOTION":13.21826945,"ECCENTRICITY":0.0001525,"INCLINATION":87.9227,"RA_OF_ASC_NODE":276.6925,"ARG_OF_PERICENTER":65.1937,"MEAN_ANOMALY":294.9356,"EPHEMERIS_TYPE":0,"CLASSIFICATION_TYPE":"U","NORAD_CAT_ID":56060,"ELEMENT_SET_NO":999,"REV_AT_EPOCH":13658,"BSTAR":0.00035005511,"MEAN_MOTION_DOT":1.58e-6,"MEAN_MOTION_DDOT":0},{"OBJECT_NAME":"ONEWEB-0566","OBJECT_ID":"2023-043R","EPOCH":"2026-01-04T05:46:00.525504","MEAN_MOTION":13.218274,"ECCENTRICITY":0.00014516,"INCLINATION":87.9226,"RA_OF_ASC_NODE":276.6778,"ARG_OF_PERICENTER":63.8,"MEAN_ANOMALY":296.3284,"EPHEMERIS_TYPE":0,"CLASSIFICATION_TYPE":"U","NORAD_CAT_ID":56061,"ELEMENT_SET_NO":999,"REV_AT_EPOCH":13657,"BSTAR":0.00053160169,"MEAN_MOTION_DOT":2.33e-6,"MEAN_MOTION_DDOT":0},{"OBJECT_NAME":"ONEWEB-0568","OBJECT_ID":"2023-043S","EPOCH":"2026-01-04T05:41:58.993440","MEAN_MOTION":13.16593966,"ECCENTRICITY":0.00015119,"INCLINATION":87.9045,"RA_OF_ASC_NODE":261.4144,"ARG_OF_PERICENTER":84.7393,"MEAN_ANOMALY":275.3911,"EPHEMERIS_TYPE":0,"CLASSIFICATION_TYPE":"U","NORAD_CAT_ID":56062,"ELEMENT_SET_NO":999,"REV_AT_EPOCH":13740,"BSTAR":7.6992299e-5,"MEAN_MOTION_DOT":4.2e-7,"MEAN_MOTION_DDOT":0},{"OBJECT_NAME":"ONEWEB-0574","OBJECT_ID":"2023-043T","EPOCH":"2026-01-04T05:36:31.721472","MEAN_MOTION":13.21827952,"ECCENTRICITY":0.00018023,"INCLINATION":87.9227,"RA_OF_ASC_NODE":276.6666,"ARG_OF_PERICENTER":75.4894,"MEAN_ANOMALY":284.644,"EPHEMERIS_TYPE":0,"CLASSIFICATION_TYPE":"U","NORAD_CAT_ID":56063,"ELEMENT_SET_NO":999,"REV_AT_EPOCH":13661,"BSTAR":0.00047636273,"MEAN_MOTION_DOT":2.1e-6,"MEAN_MOTION_DDOT":0},{"OBJECT_NAME":"ONEWEB-0575","OBJECT_ID":"2023-043U","EPOCH":"2026-01-04T01:53:59.401536","MEAN_MOTION":13.16593426,"ECCENTRICITY":0.00018386,"INCLINATION":87.9041,"RA_OF_ASC_NODE":261.4455,"ARG_OF_PERICENTER":81.5243,"MEAN_ANOMALY":278.6096,"EPHEMERIS_TYPE":0,"CLASSIFICATION_TYPE":"U","NORAD_CAT_ID":56064,"ELEMENT_SET_NO":999,"REV_AT_EPOCH":13737,"BSTAR":0.00031603761,"MEAN_MOTION_DOT":1.34e-6,"MEAN_MOTION_DDOT":0},{"OBJECT_NAME":"ONEWEB-0576","OBJECT_ID":"2023-043V","EPOCH":"2026-01-04T05:06:19.753632","MEAN_MOTION":13.16026874,"ECCENTRICITY":0.00039363,"INCLINATION":87.9021,"RA_OF_ASC_NODE":261.421,"ARG_OF_PERICENTER":135.5469,"MEAN_ANOMALY":224.5978,"EPHEMERIS_TYPE":0,"CLASSIFICATION_TYPE":"U","NORAD_CAT_ID":56065,"ELEMENT_SET_NO":999,"REV_AT_EPOCH":13738,"BSTAR":-0.19758177,"MEAN_MOTION_DOT":-0.00074292,"MEAN_MOTION_DDOT":0},{"OBJECT_NAME":"ONEWEB-0577","OBJECT_ID":"2023-043W","EPOCH":"2026-01-04T05:14:37.434912","MEAN_MOTION":13.16593616,"ECCENTRICITY":0.00022744,"INCLINATION":87.9045,"RA_OF_ASC_NODE":261.4186,"ARG_OF_PERICENTER":79.8413,"MEAN_ANOMALY":280.2975,"EPHEMERIS_TYPE":0,"CLASSIFICATION_TYPE":"U","NORAD_CAT_ID":56066,"ELEMENT_SET_NO":999,"REV_AT_EPOCH":13741,"BSTAR":0.00035692351,"MEAN_MOTION_DOT":1.49e-6,"MEAN_MOTION_DDOT":0},{"OBJECT_NAME":"ONEWEB-0578","OBJECT_ID":"2023-043X","EPOCH":"2026-01-04T07:06:36.072576","MEAN_MOTION":13.21826755,"ECCENTRICITY":0.00015836,"INCLINATION":87.9224,"RA_OF_ASC_NODE":276.6655,"ARG_OF_PERICENTER":83.4556,"MEAN_ANOMALY":276.6759,"EPHEMERIS_TYPE":0,"CLASSIFICATION_TYPE":"U","NORAD_CAT_ID":56067,"ELEMENT_SET_NO":999,"REV_AT_EPOCH":13658,"BSTAR":-3.3557078e-5,"MEAN_MOTION_DOT":-1.0e-8,"MEAN_MOTION_DDOT":0},{"OBJECT_NAME":"ONEWEB-0579","OBJECT_ID":"2023-043Y","EPOCH":"2026-01-04T06:52:20.889696","MEAN_MOTION":13.21824465,"ECCENTRICITY":0.00016682,"INCLINATION":87.9227,"RA_OF_ASC_NODE":276.6551,"ARG_OF_PERICENTER":63.6242,"MEAN_ANOMALY":296.5063,"EPHEMERIS_TYPE":0,"CLASSIFICATION_TYPE":"U","NORAD_CAT_ID":56068,"ELEMENT_SET_NO":999,"REV_AT_EPOCH":13659,"BSTAR":0.0001813231,"MEAN_MOTION_DOT":8.8e-7,"MEAN_MOTION_DDOT":0},{"OBJECT_NAME":"ONEWEB-0581","OBJECT_ID":"2023-043Z","EPOCH":"2026-01-04T05:23:44.684736","MEAN_MOTION":13.16593605,"ECCENTRICITY":0.00019372,"INCLINATION":87.9041,"RA_OF_ASC_NODE":261.4303,"ARG_OF_PERICENTER":73.5094,"MEAN_ANOMALY":286.625,"EPHEMERIS_TYPE":0,"CLASSIFICATION_TYPE":"U","NORAD_CAT_ID":56069,"ELEMENT_SET_NO":999,"REV_AT_EPOCH":13738,"BSTAR":0.0001306795,"MEAN_MOTION_DOT":6.3e-7,"MEAN_MOTION_DDOT":0},{"OBJECT_NAME":"ONEWEB-0609","OBJECT_ID":"2023-043AA","EPOCH":"2026-01-04T06:43:30.887040","MEAN_MOTION":13.1554802,"ECCENTRICITY":0.00016155,"INCLINATION":87.9013,"RA_OF_ASC_NODE":291.93,"ARG_OF_PERICENTER":73.3809,"MEAN_ANOMALY":286.7499,"EPHEMERIS_TYPE":0,"CLASSIFICATION_TYPE":"U","NORAD_CAT_ID":56070,"ELEMENT_SET_NO":999,"REV_AT_EPOCH":13488,"BSTAR":-1.2396067e-5,"MEAN_MOTION_DOT":8.0e-8,"MEAN_MOTION_DDOT":0},{"OBJECT_NAME":"ONEWEB-0613","OBJECT_ID":"2023-043AB","EPOCH":"2026-01-04T06:36:39.896928","MEAN_MOTION":13.15548,"ECCENTRICITY":0.00015703,"INCLINATION":87.9008,"RA_OF_ASC_NODE":291.942,"ARG_OF_PERICENTER":64.2059,"MEAN_ANOMALY":295.9233,"EPHEMERIS_TYPE":0,"CLASSIFICATION_TYPE":"U","NORAD_CAT_ID":56071,"ELEMENT_SET_NO":999,"REV_AT_EPOCH":13488,"BSTAR":-4.7177676e-5,"MEAN_MOTION_DOT":-5.0e-8,"MEAN_MOTION_DDOT":0},{"OBJECT_NAME":"ONEWEB-0630","OBJECT_ID":"2023-043AC","EPOCH":"2026-01-04T06:29:49.024320","MEAN_MOTION":13.15547617,"ECCENTRICITY":0.00016176,"INCLINATION":87.9007,"RA_OF_ASC_NODE":291.9148,"ARG_OF_PERICENTER":64.3954,"MEAN_ANOMALY":295.7343,"EPHEMERIS_TYPE":0,"CLASSIFICATION_TYPE":"U","NORAD_CAT_ID":56072,"ELEMENT_SET_NO":999,"REV_AT_EPOCH":13487,"BSTAR":0.00011148997,"MEAN_MOTION_DOT":5.5e-7,"MEAN_MOTION_DDOT":0},{"OBJECT_NAME":"ONEWEB-0632","OBJECT_ID":"2023-043AD","EPOCH":"2026-01-04T06:22:58.254528","MEAN_MOTION":13.15549331,"ECCENTRICITY":0.0001836,"INCLINATION":87.9006,"RA_OF_ASC_NODE":291.9328,"ARG_OF_PERICENTER":71.919,"MEAN_ANOMALY":288.214,"EPHEMERIS_TYPE":0,"CLASSIFICATION_TYPE":"U","NORAD_CAT_ID":56073,"ELEMENT_SET_NO":999,"REV_AT_EPOCH":13487,"BSTAR":0.00011579936,"MEAN_MOTION_DOT":5.6e-7,"MEAN_MOTION_DDOT":0},{"OBJECT_NAME":"ONEWEB-0633","OBJECT_ID":"2023-043AE","EPOCH":"2026-01-04T06:13:50.997792","MEAN_MOTION":13.15548082,"ECCENTRICITY":0.00014264,"INCLINATION":87.9008,"RA_OF_ASC_NODE":291.8972,"ARG_OF_PERICENTER":60.4636,"MEAN_ANOMALY":299.6637,"EPHEMERIS_TYPE":0,"CLASSIFICATION_TYPE":"U","NORAD_CAT_ID":56074,"ELEMENT_SET_NO":999,"REV_AT_EPOCH":13485,"BSTAR":0.00015780459,"MEAN_MOTION_DOT":7.2e-7,"MEAN_MOTION_DDOT":0},{"OBJECT_NAME":"ONEWEB-0634","OBJECT_ID":"2023-043AF","EPOCH":"2026-01-04T05:53:18.919104","MEAN_MOTION":13.1554666,"ECCENTRICITY":0.00015606,"INCLINATION":87.9015,"RA_OF_ASC_NODE":291.9515,"ARG_OF_PERICENTER":91.7337,"MEAN_ANOMALY":268.3972,"EPHEMERIS_TYPE":0,"CLASSIFICATION_TYPE":"U","NORAD_CAT_ID":56075,"ELEMENT_SET_NO":999,"REV_AT_EPOCH":13484,"BSTAR":0.001492035,"MEAN_MOTION_DOT":5.75e-6,"MEAN_MOTION_DDOT":0},{"OBJECT_NAME":"ONEWEB-0635","OBJECT_ID":"2023-043AG","EPOCH":"2026-01-04T05:46:28.148448","MEAN_MOTION":13.15549057,"ECCENTRICITY":0.00019585,"INCLINATION":87.9003,"RA_OF_ASC_NODE":291.9056,"ARG_OF_PERICENTER":72.4741,"MEAN_ANOMALY":287.6603,"EPHEMERIS_TYPE":0,"CLASSIFICATION_TYPE":"U","NORAD_CAT_ID":56076,"ELEMENT_SET_NO":999,"REV_AT_EPOCH":13487,"BSTAR":0.00086301609,"MEAN_MOTION_DOT":3.38e-6,"MEAN_MOTION_DDOT":0}]
